OBJECT_NAME,OBJECT_ID,EPOCH,MEAN_MOTION,ECCENTRICITY,INCLINATION,RA_OF_ASC_NODE,ARG_OF_PERICENTER,MEAN_ANOMALY,EPHEMERIS_TYPE,CLASSIFICATION_TYPE,NORAD_CAT_ID,ELEMENT_SET_NO,REV_AT_EPOCH,BSTAR,MEAN_MOTION_DOT,MEAN_MOTION_DDOT
ARIANE 40+ R/B,1995-021B,2026-06-05T10:32:36.284640,14.39826708,.00057772,98.4412,226.6834,232.0914,138.6075,0,U,23561,999,63187,.10295686E-3,.28E-5,0
SL-16 R/B,1995-058B,2026-06-05T19:49:05.892096,14.15505592,.0013274,71.0217,355.2136,335.7457,24.3039,0,U,23705,999,58032,-.7543E-4,-.195E-5,0
SL-16 R/B,1996-051B,2026-06-05T20:12:15.470208,14.12442231,.0014495,70.7634,348.6609,354.2361,5.8590,0,U,24298,999,53409,.99724E-4,.135E-5,0
ORBVIEW 2 (SEASTAR),1997-037A,2026-06-05T10:47:49.679520,14.35547281,.00027955,98.8680,323.1444,140.4652,219.6737,0,U,24883,999,52106,.11358185E-3,.28E-5,0
SL-16 R/B,1998-043G,2026-06-05T20:33:02.058048,14.26066719,.0010798,98.8359,110.9184,115.9832,244.2461,0,U,25400,999,45155,.48377E-4,.7E-6,0
SL-16 R/B,1998-045B,2026-06-05T20:44:17.221344,14.16204086,.0009546,71.0121,356.1436,255.0716,104.9350,0,U,25407,999,43958,.10644E-3,.163E-5,0
CZ-4B R/B,1999-025C,2026-06-05T12:13:13.503648,14.18281470,.00382617,98.6489,198.6411,92.3059,27.3211,0,U,25732,999,40061,.46287668E-4,.53E-6,0
OKEAN-O,1999-039A,2026-06-05T10:51:02.837952,14.80452522,.00018804,97.9320,215.3843,81.1065,279.0360,0,U,25860,999,44737,.92553881E-4,.656E-5,0
SL-16 R/B,1999-039B,2026-06-05T10:00:54.859104,14.81833180,.00141776,97.9842,215.3132,337.8996,22.1603,0,U,25861,999,44985,.76090881E-4,.548E-5,0
DELTA 2 R/B,1999-041E,2026-06-05T17:01:04.095552,14.11994346,.05010358,51.7659,309.6462,248.0872,106.6086,0,U,25876,999,37546,.14822821E-3,.687E-5,0
HELIOS 1B,1999-064A,2026-06-05T11:28:09.974208,14.87974546,.00022895,98.1623,61.2785,107.8860,252.2605,0,U,25977,999,69831,.18385057E-3,.1628E-4,0
TERRA,1999-068A,2026-06-05T22:26:45.053088,14.61094220,.0000845,97.9461,206.9271,249.6338,234.0500,0,U,25994,999,40796,.99242E-4,.443E-5,0
SL-16 R/B,2000-006B,2026-06-05T14:52:28.511616,14.15837272,.00149666,71.0034,272.9467,41.5061,318.7196,0,U,26070,999,36100,-.29822343E-4,-.106E-5,0
TITAN 4B R/B,2000-047B,2026-06-05T20:48:39.678624,15.10130524,.004545,67.9871,152.4352,298.5050,61.1526,0,U,26474,999,40622,.22544E-3,.3636E-4,0
ENVISAT,2002-009A,2026-06-05T20:16:49.046304,14.39062125,.0001332,98.3829,108.4168,91.6618,323.0508,0,U,27386,999,27185,.49763E-4,.111E-5,0
IDEFIX & ARIANE 42P R/B,2002-021B,2026-06-05T14:14:14.430912,14.31076536,.00106702,98.5941,94.2022,291.7791,68.2256,0,U,27422,999,25659,.1102229E-3,.247E-5,0
AQUA,2002-022A,2026-06-05T21:40:04.230336,14.62140937,.0001544,98.4271,125.9608,55.7883,22.2980,0,U,27424,999,28162,.19543E-3,.933E-5,0
CZ-4B R/B,2002-024C,2026-06-05T01:48:47.902752,14.14562369,.00509524,98.8704,208.9736,133.9745,293.4448,0,U,27432,999,24159,.49123818E-4,.52E-6,0
MIDORI II (ADEOS-II),2002-056A,2026-06-05T20:49:36.733728,14.29343457,.0002208,98.7873,116.0319,93.1000,267.0434,0,U,27597,999,22289,.14407E-3,.322E-5,0
H-2A R/B,2002-056E,2026-06-05T20:16:36.709248,14.33817169,.0068879,98.3308,113.9330,258.9212,154.4378,0,U,27601,999,22674,.98809E-4,.24E-5,0
CZ-4B R/B,2003-049C,2026-06-05T11:20:34.914912,14.55092077,.00474178,98.6895,154.8529,325.0742,34.7345,0,U,28059,999,19936,.94450944E-4,.361E-5,0
CZ-2C R/B,2004-012C,2026-06-04T17:30:35.057952,15.76591401,.0008803,97.7083,229.9670,340.1675,19.9247,0,U,28222,999,21793,.59019E-3,.94695E-3,0
SL-16 R/B,2004-021B,2026-06-05T23:43:52.370112,14.14612943,.0007476,71.0024,47.1911,267.5401,92.4865,0,U,28353,999,13532,-.52859E-4,-.149E-5,0
CZ-4B R/B,2004-035C,2026-06-05T10:19:02.340480,15.30444803,.0031426,97.3366,189.6370,20.0933,340.1538,0,U,28415,999,19332,.28819837E-3,.8537E-4,0
CZ-2C R/B,2004-046B,2026-06-05T08:12:09.010080,14.27023850,.01380996,98.1953,65.8617,255.5493,103.0331,0,U,28480,999,12100,.50692996E-4,.94E-6,0
ARIANE 5 R/B,2004-049H,2026-06-05T11:26:43.321920,14.85431987,.00851022,98.2714,328.2782,66.9677,294.0483,0,U,28499,999,15882,.10356702E-3,.888E-5,0
CZ-2D R/B,2005-024B,2026-06-05T07:00:54.959328,15.68231466,.0005312,97.3496,175.1383,79.1543,281.0316,0,U,28738,999,15347,.46636E-3,.52198E-3,0
ALOS (DAICHI),2006-002A,2026-06-05T20:37:49.027008,14.70027558,.0001862,98.1319,112.4628,63.8930,296.2467,0,U,28931,999,8643,.22225E-3,.1284E-4,0
H-2A R/B,2006-002B,2026-06-05T09:17:25.809792,15.17909872,.00497756,98.2558,311.1509,303.3865,56.2609,0,U,28932,999,10773,.31189139E-3,.6448E-4,0
