ARIANE 40+ R/B          
1 23561U 95021B   26156.43930885  .00000280  00000+0  10296-3 0  9994
2 23561  98.4412 226.6834 0005777 232.0914 138.6075 14.39826708631878
SL-16 R/B               
1 23705U 95058B   26156.82576265 -.00000195  00000+0 -75430-4 0  9994
2 23705  71.0217 355.2136 0013273 335.7457  24.3039 14.15505592580328
SL-16 R/B               
1 24298U 96051B   26156.84184572  .00000135  00000+0  99724-4 0  9998
2 24298  70.7634 348.6609 0014494 354.2361   5.8590 14.12442231534098
ORBVIEW 2 (SEASTAR)     
1 24883U 97037A   26156.44988055  .00000280  00000+0  11358-3 0  9994
2 24883  98.8680 323.1444 0002795 140.4652 219.6737 14.35547281521061
SL-16 R/B               
1 25400U 98043G   26156.85627382  .00000070  00000+0  48377-4 0  9995
2 25400  98.8359 110.9184 0010797 115.9832 244.2461 14.26066719451557
SL-16 R/B               
1 25407U 98045B   26156.86408821  .00000163  00000+0  10644-3 0  9998
2 25407  71.0121 356.1436 0009545 255.0716 104.9350 14.16204086439582
CZ-4B R/B               
1 25732U 99025C   26156.50918407  .00000053  00000+0  46288-4 0  9997
2 25732  98.6489 198.6411 0038261  92.3059  27.3211 14.18281470400616
OKEAN-O                 
1 25860U 99039A   26156.45211618  .00000656  00000+0  92554-4 0  9994
2 25860  97.9320 215.3843 0001880  81.1065 279.0360 14.80452522447372
SL-16 R/B               
1 25861U 99039B   26156.41730161  .00000548  00000+0  76091-4 0  9998
2 25861  97.9842 215.3132 0014177 337.8996  22.1603 14.81833180449856
DELTA 2 R/B             
1 25876U 99041E   26156.70907518  .00000687  00000+0  14823-3 0  9999
2 25876  51.7659 309.6462 0501035 248.0872 106.6086 14.11994346375462
HELIOS 1B               
1 25977U 99064A   26156.47789322  .00001628  00000+0  18385-3 0  9994
2 25977  98.1623  61.2785 0002289 107.8860 252.2605 14.87974546698315
TERRA                   
1 25994U 99068A   26156.93524367  .00000443  00000+0  99242-4 0  9990
2 25994  97.9461 206.9271 0000845 249.6338 234.0500 14.61094220407965
SL-16 R/B               
1 26070U 00006B   26156.61977444 -.00000106  00000+0 -29822-4 0  9998
2 26070  71.0034 272.9467 0014966  41.5061 318.7196 14.15837272361007
TITAN 4B R/B            
1 26474U 00047B   26156.86712592  .00003636  00000+0  22544-3 0  9991
2 26474  67.9871 152.4352 0045449 298.5050  61.1526 15.10130524406227
ENVISAT                 
1 27386U 02009A   26156.84501211  .00000111  00000+0  49763-4 0  9994
2 27386  98.3829 108.4168 0001332  91.6618 323.0508 14.39062125271852
IDEFIX & ARIANE 42P R/B 
1 27422U 02021B   26156.59322258  .00000247  00000+0  11022-3 0  9999
2 27422  98.5941  94.2022 0010670 291.7791  68.2256 14.31076536256596
AQUA                    
1 27424U 02022A   26156.90282674  .00000933  00000+0  19543-3 0  9992
2 27424  98.4271 125.9608 0001543  55.7883  22.2980 14.62140937281621
CZ-4B R/B               
1 27432U 02024C   26156.07555443  .00000052  00000+0  49124-4 0  9999
2 27432  98.8704 208.9736 0050952 133.9745 293.4448 14.14562369241590
MIDORI II (ADEOS-II)    
1 27597U 02056A   26156.86778628  .00000322  00000+0  14407-3 0  9990
2 27597  98.7873 116.0319 0002207  93.1000 267.0434 14.29343457222890
H-2A R/B                
1 27601U 02056E   26156.84486932  .00000240  00000+0  98809-4 0  9996
2 27601  98.3308 113.9330 0068879 258.9212 154.4378 14.33817169226742
CZ-4B R/B               
1 28059U 03049C   26156.47262633  .00000361  00000+0  94451-4 0  9999
2 28059  98.6895 154.8529 0047417 325.0742  34.7345 14.55092077199365
CZ-2C R/B               
1 28222U 04012C   26155.72957243  .00094695  00000+0  59019-3 0  9990
2 28222  97.7083 229.9670 0008803 340.1675  19.9247 15.76591401217935
SL-16 R/B               
1 28353U 04021B   26156.98880058 -.00000149  00000+0 -52859-4 0  9992
2 28353  71.0024  47.1911 0007476 267.5401  92.4865 14.14612943135322
CZ-4B R/B               
1 28415U 04035C   26156.42988820  .00008537  00000+0  28820-3 0  9998
2 28415  97.3366 189.6370 0031426  20.0933 340.1538 15.30444803193327
CZ-2C R/B               
1 28480U 04046B   26156.34177095  .00000094  00000+0  50693-4 0  9991
2 28480  98.1953  65.8617 0138099 255.5493 103.0331 14.27023850121002
ARIANE 5 R/B            
1 28499U 04049H   26156.47689030  .00000888  00000+0  10357-3 0  9998
2 28499  98.2714 328.2782 0085102  66.9677 294.0483 14.85431987158828
CZ-2D R/B               
1 28738U 05024B   26156.29230277  .00052198  00000+0  46636-3 0  9993
2 28738  97.3496 175.1383 0005312  79.1543 281.0316 15.68231466153479
ALOS (DAICHI)           
1 28931U 06002A   26156.85959522  .00001284  00000+0  22225-3 0  9996
2 28931  98.1319 112.4628 0001861  63.8930 296.2467 14.70027559 86432
H-2A R/B                
1 28932U 06002B   26156.38710428  .00006448  00000+0  31189-3 0  9991
2 28932  98.2558 311.1509 0049775 303.3865  56.2609 15.17909872107738
